IRIDIUM 159             
1 43578U 18061K   25355.36627844  .00000242  00000+0  79174-4 0  9992
2 43578  86.3980 131.0630 0001981  91.0330 269.1093 14.34218982387899
IRIDIUM 180             
1 43922U 19002A   25355.50531186  .00000193  00000+0  61845-4 0  9991
2 43922  86.3962  67.8768 0001943  95.3226 264.8191 14.34217820363524
IRIDIUM 176             
1 43923U 19002B   25355.28750391  .00000809  00000+0  12444-3 0  9992
2 43923  86.6081  67.9371 0002359  95.8874 264.2612 14.72260447373075
IRIDIUM 168             
1 43924U 19002C   25355.49896819  .00000261  00000+0  86021-4 0  9997
2 43924  86.3963  67.9517 0002130  98.4426 261.7011 14.34217199363509
IRIDIUM 173             
1 43925U 19002D   25355.06766859  .00000236  00000+0  77375-4 0  9995
2 43925  86.3961  68.0281 0002082 102.0227 258.1202 14.34217373363422
IRIDIUM 169             
1 43926U 19002E   25355.25902942  .00000331  00000+0  10162-3 0  9998
2 43926  86.4225  99.6006 0002491 122.7165 237.4274 14.38611218364640
IRIDIUM 172             
1 43927U 19002F   25355.47993978  .00000258  00000+0  84920-4 0  9994
2 43927  86.3959  67.8630 0001987  94.4567 265.6856 14.34217116363490
IRIDIUM 175             
1 43928U 19002G   25355.48669449  .00000754  00000+0  11553-3 0  9991
2 43928  86.1497   9.7643 0003187  83.7490 276.4089 14.72250287373098
